{
    "links": {
        "self": "http://www.neowsapp.com/rest/v1/neo/3292262?api_key=iIulBulltgU6a56xZRHN4H3l9WmuAYTsLGpBGhQ2"
    },
    "id": "3292262",
    "neo_reference_id": "3292262",
    "name": "(2005 TN)",
    "designation": "2005 TN",
    "nasa_jpl_url": "http://ssd.jpl.nasa.gov/sbdb.cgi?sstr=3292262",
    "absolute_magnitude_h": 22.4,
    "estimated_diameter": {
        "kilometers": {
            "estimated_diameter_min": 0.0880146521,
            "estimated_diameter_max": 0.1968067451
        },
        "meters": {
            "estimated_diameter_min": 88.0146520901,
            "estimated_diameter_max": 196.8067450894
        },
        "miles": {
            "estimated_diameter_min": 0.0546897524,
            "estimated_diameter_max": 0.122290004
        },
        "feet": {
            "estimated_diameter_min": 288.7619911632,
            "estimated_diameter_max": 645.6914415591
        }
    },
    "is_potentially_hazardous_asteroid": false,
    "close_approach_data": [
        {
            "close_approach_date": "1998-09-29",
            "close_approach_date_full": "1998-Sep-29 23:42",
            "epoch_date_close_approach": 907112520000,
            "relative_velocity": {
                "kilometers_per_second": "8.6158643136",
                "kilometers_per_hour": "31017.1115291041",
                "miles_per_hour": "19272.8268831814"
            },
            "miss_distance": {
                "astronomical": "0.3978884554",
                "lunar": "154.7786091506",
                "kilometers": "59523265.425429998",
                "miles": "36986042.0698020524"
            },
            "orbiting_body": "Earth"
        },
        {
            "close_approach_date": "2005-09-18",
            "close_approach_date_full": "2005-Sep-18 02:00",
            "epoch_date_close_approach": 1127008800000,
            "relative_velocity": {
                "kilometers_per_second": "8.6794184701",
                "kilometers_per_hour": "31245.9064924401",
                "miles_per_hour": "19414.9911758165"
            },
            "miss_distance": {
                "astronomical": "0.2914962458",
                "lunar": "113.3920396162",
                "kilometers": "43607217.484676446",
                "miles": "27096268.4743131148"
            },
            "orbiting_body": "Earth"
        },
        {
            "close_approach_date": "2012-09-09",
            "close_approach_date_full": "2012-Sep-09 04:49",
            "epoch_date_close_approach": 1347166140000,
            "relative_velocity": {
                "kilometers_per_second": "9.5378822725",
                "kilometers_per_hour": "34336.3761810963",
                "miles_per_hour": "21335.2888554151"
            },
            "miss_distance": {
                "astronomical": "0.3212492757",
                "lunar": "124.9659682473",
                "kilometers": "48058207.383762759",
                "miles": "29861985.3496097142"
            },
            "orbiting_body": "Earth"
        },
        {
            "close_approach_date": "2019-08-29",
            "close_approach_date_full": "2019-Aug-29 17:42",
            "epoch_date_close_approach": 1567100520000,
            "relative_velocity": {
                "kilometers_per_second": "10.6198217819",
                "kilometers_per_hour": "38231.3584149318",
                "miles_per_hour": "23755.4793439892"
            },
            "miss_distance": {
                "astronomical": "0.4736877212",
                "lunar": "184.2645235468",
                "kilometers": "70862674.136673844",
                "miles": "44032023.9164492872"
            },
            "orbiting_body": "Earth"
        }
    ],
    "orbital_data": {
        "orbit_id": "10",
        "orbit_determination_date": "2017-04-06 09:10:20",
        "first_observation_date": "2005-10-01",
        "last_observation_date": "2005-10-23",
        "data_arc_in_days": 22,
        "observations_used": 26,
        "orbit_uncertainty": "7",
        "minimum_orbit_intersection": ".283667",
        "jupiter_tisserand_invariant": "4.010",
        "epoch_osculation": "2459000.5",
        "eccentricity": ".3011003459045684",
        "semi_major_axis": "1.766115514954448",
        "inclination": "16.85409114315037",
        "ascending_node_longitude": "13.28522442927762",
        "orbital_period": "857.2886727238453",
        "perihelion_distance": "1.234337522494238",
        "perihelion_argument": "313.3345498080018",
        "aphelion_distance": "2.297893507414657",
        "perihelion_time": "2458735.675232271644",
        "mean_anomaly": "111.2074840313663",
        "mean_motion": ".4199285625181301",
        "equinox": "J2000",
        "orbit_class": {
            "orbit_class_type": "AMO",
            "orbit_class_description": "Near-Earth asteroid orbits similar to that of 1221 Amor",
            "orbit_class_range": "1.017 AU < q (perihelion) < 1.3 AU"
        }
    },
    "is_sentry_object": false
}